NORAD_CAT_ID,OBJECT_NAME,OBJECT_TYPE,EPOCH,MEAN_MOTION,ECCENTRICITY,INCLINATION,RA_OF_ASC_NODE,ARG_OF_PERICENTER,MEAN_ANOMALY,BSTAR,MEAN_MOTION_DOT,MEAN_MOTION_DDOT,TLE_LINE0,TLE_LINE1,TLE_LINE2,SEMIMAJOR_AXIS,PERIOD,APOGEE,PERIGEE,DECAYED
52833.0,STARLINK-4086,PAYLOAD,2022-09-25 06:00:00,15.08848571,0.0001641999999999,53.215,296.9344,48.184,80.6471,-0.0013052,-0.00021005,0.0,0 STARLINK-4086,1 52833U 22062D   22268.25001157 -.00021005  00000-0 -13052-2 0  9997,2 52833  53.2150 296.9344 0001642  48.1840  80.6471 15.08848571 15340,6917.854,95.437,540.855,538.5830000000002,0.0
52833.0,STARLINK-4086,PAYLOAD,2022-09-25 14:00:01,15.0884325,0.0001813,53.215,295.439,43.5392,96.8869,-0.00036761,-6.134e-05,0.0,0 STARLINK-4086,1 52833U 22062D   22268.58334491 -.00006134  00000-0 -36761-3 0  9992,2 52833  53.2150 295.4390 0001813  43.5392  96.8869 15.08843250  1306,6917.87,95.437,540.99,538.481,0.0
52833.0,STARLINK-4086,PAYLOAD,2022-09-26 00:00:00,15.08803919,0.000167,53.2153,293.5664,53.4703,191.4445,0.0027218,0.00043253,0.0,0 STARLINK-4086,1 52833U 22062D   22269.00001157  .00043253  00000-0  27218-2 0  9997,2 52833  53.2153 293.5664 0001670  53.4703 191.4445 15.08803919  1309,6917.991,95.44,541.011,538.7,0.0
52833.0,STARLINK-4086,PAYLOAD,2022-09-26 10:00:00,15.08818085,0.0001901,53.2152,291.6975,48.1697,301.2105,0.0011125,0.00017451,0.0,0 STARLINK-4086,1 52833U 22062D   22269.41667824  .00017451  00000-0  11125-2 0  9992,2 52833  53.2152 291.6975 0001901  48.1697 301.2105 15.08818085 15525,6917.946999999999,95.439,541.127,538.497,0.0
52833.0,STARLINK-4086,PAYLOAD,2022-09-26 14:00:01,15.08822788,0.0001884,53.2149,290.949,46.1755,128.9913,0.0014827,0.00023377,0.0,0 STARLINK-4086,1 52833U 22062D   22269.58334491  .00023377  00000-0  14827-2 0  9997,2 52833  53.2149 290.9490 0001884  46.1755 128.9913 15.08822788  1305,6917.933000000001,95.439,541.101,538.495,0.0
52833.0,STARLINK-4086,PAYLOAD,2022-09-27 00:00:00,15.08822799,0.000171,53.2151,289.0765,54.3555,225.2979,0.0026179,0.00041603,0.0,0 STARLINK-4086,1 52833U 22062D   22270.00001157  .00041603  00000-0  26179-2 0  9991,2 52833  53.2151 289.0765 0001710  54.3555 225.2979 15.08822799  1304,6917.933000000001,95.439,540.981,538.615,0.0
52833.0,STARLINK-4086,PAYLOAD,2022-09-27 14:00:01,15.08857107,0.0001865999999999,53.2148,286.4593,47.4032,162.5435,-0.00020515,-3.553e-05,0.0,0 STARLINK-4086,1 52833U 22062D   22270.58334491 -.00003553  00000-0 -20515-3 0  9997,2 52833  53.2148 286.4593 0001866  47.4032 162.5435 15.08857107 15693,6917.828,95.436,540.984,538.4019999999998,0.0
52833.0,STARLINK-4086,PAYLOAD,2022-09-27 22:00:01,15.0882362,0.0001634,53.2148,284.9611,52.4543,169.1823,0.0021789,0.00034544,0.0,0 STARLINK-4086,1 52833U 22062D   22270.91668981  .00034544  00000-0  21789-2 0  9993,2 52833  53.2148 284.9611 0001634  52.4543 169.1823 15.08823620  1303,6917.93,95.439,540.9259999999998,538.665,0.0
52833.0,STARLINK-4086,PAYLOAD,2022-09-28 14:00:01,15.08865448,0.0001753,53.2145,281.9697,46.4405,198.3186,-0.0029589,-0.00047105,0.0,0 STARLINK-4086,1 52833U 22062D   22271.58334491 -.00047105  00000-0 -29589-2 0  9998,2 52833  53.2145 281.9697 0001753  46.4405 198.3186 15.08865448  1303,6917.803000000001,95.436,540.88,538.455,0.0
52833.0,STARLINK-4086,PAYLOAD,2022-09-28 22:00:00,15.08803005,0.000155,53.2145,280.4715,51.5894,204.7665,0.0030545,0.00048611,0.0,0 STARLINK-4086,1 52833U 22062D   22271.91667824  .00048611  00000-0  30545-2 0  9999,2 52833  53.2145 280.4715 0001550  51.5894 204.7665 15.08803005 15896,6917.993,95.44,540.931,538.786,0.0
52833.0,STARLINK-4086,PAYLOAD,2022-09-29 14:00:01,15.08845854,0.0001732,53.2143,277.4802,46.0569,233.4541,-0.00046526,-7.686e-05,0.0,0 STARLINK-4086,1 52833U 22062D   22272.58334491 -.00007686  00000-0 -46526-3 0  9990,2 52833  53.2143 277.4802 0001732  46.0569 233.4541 15.08845854  1308,6917.861999999999,95.437,540.9259999999998,538.529,0.0
52833.0,STARLINK-4086,PAYLOAD,2022-09-29 22:00:00,15.08827192,0.0001593,53.2144,275.9821,53.1985,237.9181,0.0026327,0.00041846,0.0,0 STARLINK-4086,1 52833U 22062D   22272.91667824  .00041846  00000-0  26327-2 0  9996,2 52833  53.2144 275.9821 0001593  53.1985 237.9181 15.08827192  1303,6917.92,95.438,540.887,538.683,0.0
52833.0,STARLINK-4086,PAYLOAD,2022-09-30 14:00:01,15.0884574,0.0001706999999999,53.2143,272.9907,44.4688,269.8354,-0.00076679,-0.00012473,0.0,0 STARLINK-4086,1 52833U 22062D   22273.58334491 -.00012473  00000-0 -76679-3 0  9993,2 52833  53.2143 272.9907 0001707  44.4688 269.8354 15.08845740  1309,6917.863,95.437,540.909,538.547,0.0
52833.0,STARLINK-4086,PAYLOAD,2022-09-30 16:00:00,15.08851342,0.0001686999999999,53.2145,272.616,46.8531,0.3486,-0.001514,-0.0002431,0.0,0 STARLINK-4086,1 52833U 22062D   22273.66667824 -.00024310  00000-0 -15140-2 0  9999,2 52833  53.2145 272.6160 0001687  46.8531   0.3486 15.08851342 16168,6917.846,95.437,540.878,538.544,0.0
52833.0,STARLINK-4086,PAYLOAD,2022-09-30 22:00:00,15.08816036,0.0001537,53.2144,271.4927,50.5072,275.4049,0.0018125999999999,0.00028658,0.0,0 STARLINK-4086,1 52833U 22062D   22273.91667824  .00028658  00000-0  18126-2 0  9991,2 52833  53.2144 271.4927 0001537  50.5072 275.4049 15.08816036  1302,6917.954000000002,95.439,540.882,538.755,0.0
52833.0,STARLINK-4086,PAYLOAD,2022-10-01 14:00:01,15.08859202,0.0001676999999999,53.2146,268.5013,41.7943,307.2712,-0.0027184,-0.00043315,0.0,0 STARLINK-4086,1 52833U 22062D   22274.58334491 -.00043315  00000-0 -27184-2 0  9999,2 52833  53.2146 268.5013 0001677  41.7943 307.2712 15.08859202 16300,6917.821999999999,95.436,540.847,538.5269999999998,0.0
52833.0,STARLINK-4086,PAYLOAD,2022-10-01 22:00:00,15.08806966,0.0001528,53.2147,267.0035,48.1297,312.5448,0.0025840999999999,0.00041041,0.0,0 STARLINK-4086,1 52833U 22062D   22274.91667824  .00041041  00000-0  25841-2 0  9995,2 52833  53.2147 267.0035 0001528  48.1297 312.5448 15.08806966  1316,6917.981,95.44,540.903,538.789,0.0
52833.0,STARLINK-4086,PAYLOAD,2022-10-02 06:00:00,15.08833185,0.000172,53.2148,265.5088,43.8446,328.4027,-0.00036051,-6.02e-05,0.0,0 STARLINK-4086,1 52833U 22062D   22275.25001157 -.00006020  00000-0 -36051-3 0  9990,2 52833  53.2148 265.5088 0001720  43.8446 328.4027 15.08833185 16408,6917.901,95.438,540.956,538.576,0.0
52833.0,STARLINK-4086,PAYLOAD,2022-10-02 14:00:01,15.08855089,0.000172,53.2149,264.012,42.3664,341.4623,-0.0011353,-0.00018319,0.0,0 STARLINK-4086,1 52833U 22062D   22275.58334491 -.00018319  00000-0 -11353-2 0  9997,2 52833  53.2149 264.0120 0001720  42.3664 341.4623 15.08855089  1303,6917.834,95.437,540.889,538.509,0.0
52833.0,STARLINK-4086,PAYLOAD,2022-10-02 22:00:00,15.08843284,0.0001653,53.2151,262.5143,51.2172,344.2227,0.00049175,7.548e-05,0.0,0 STARLINK-4086,1 52833U 22062D   22275.91667824  .00007548  00000-0  49175-3 0  9997,2 52833  53.2151 262.5143 0001653  51.2172 344.2227 15.08843284  1307,6917.87,95.437,540.879,538.592,0.0
52833.0,STARLINK-4086,PAYLOAD,2022-10-03 14:00:01,15.08881172,0.0001781,53.215,259.5228,46.236,12.4013,-0.0042077,-0.0006671,0.0,0 STARLINK-4086,1 52833U 22062D   22276.58334491 -.00066710  00000-0 -42077-2 0  9993,2 52833  53.2150 259.5228 0001781  46.2360  12.4013 15.08881172  1306,6917.755,95.435,540.852,538.387,0.0
52833.0,STARLINK-4086,PAYLOAD,2022-10-03 22:00:00,15.08837776,0.0001597,53.2152,258.0252,51.4273,18.8262,0.0012802,0.00020144,0.0,0 STARLINK-4086,1 52833U 22062D   22276.91667824  .00020144  00000-0  12802-2 0  9991,2 52833  53.2152 258.0252 0001597  51.4273  18.8262 15.08837776  1302,6917.887,95.438,540.857,538.6469999999998,0.0
52833.0,STARLINK-4086,PAYLOAD,2022-10-04 06:00:00,15.08832503,0.000174,53.2151,256.5305,46.2436,35.6171,0.00023691,3.484e-05,0.0,0 STARLINK-4086,1 52833U 22062D   22277.25001157  .00003484  00000-0  23691-3 0  9997,2 52833  53.2151 256.5305 0001740  46.2436  35.6171 15.08832503 16705,6917.903,95.438,540.972,538.565,0.0
52833.0,STARLINK-4086,PAYLOAD,2022-10-04 14:00:01,15.088667,0.0001696,53.2149,255.0334,46.6744,46.773,-0.004088,-0.00064811,0.0,0 STARLINK-4086,1 52833U 22062D   22277.58334491 -.00064811  00000-0 -40880-2 0  9994,2 52833  53.2149 255.0334 0001696  46.6744  46.7730 15.08866700  1304,6917.799,95.436,540.837,538.491,0.0
52833.0,STARLINK-4086,PAYLOAD,2022-10-04 22:00:00,15.08836085,0.0001626,53.2151,253.536,55.2994,49.7482,0.00080948,0.00012617,0.0,0 STARLINK-4086,1 52833U 22062D   22277.91667824  .00012617  00000-0  80948-3 0  9995,2 52833  53.2151 253.5360 0001626  55.2994  49.7482 15.08836085  1305,6917.892,95.438,540.882,538.633,0.0
52833.0,STARLINK-4086,PAYLOAD,2022-10-05 08:00:01,15.08854976,0.000165,53.2164,251.6701,50.9033,158.6379,-0.0091071,-0.00142435,0.0,0 STARLINK-4086,1 52833U 22062D   22278.33334491 -.00142435  00000-0 -91071-2 0  9995,2 52833  53.2164 251.6701 0001650  50.9033 158.6379 15.08854976 16861,6917.835,95.437,540.841,538.558,0.0
52833.0,STARLINK-4086,PAYLOAD,2022-10-05 14:00:01,15.08708001,0.0001506,53.2167,250.5476,53.8884,74.4045,0.011914,0.00193889,0.0,0 STARLINK-4086,1 52833U 22062D   22278.58335648  .00193889  00000-0  11914-1 0  9991,2 52833  53.2167 250.5476 0001506  53.8884  74.4045 15.08708001 16904,6918.284000000002,95.446,541.191,539.107,0.0
52833.0,STARLINK-4086,PAYLOAD,2022-10-05 22:00:00,15.08837033,0.0001423,53.2176,249.0513,61.1124,78.637,1.3595e-05,-7.2e-07,0.0,0 STARLINK-4086,1 52833U 22062D   22278.91667824 -.00000072  00000-0  13595-4 0  9994,2 52833  53.2176 249.0513 0001423  61.1124  78.6370 15.08837033 16956,6917.889,95.438,540.739,538.77,0.0
52833.0,STARLINK-4086,PAYLOAD,2022-10-06 14:00:01,15.08770528,0.0001505,53.2167,246.0586,57.988,104.9812,0.0063827,0.00102579,0.0,0 STARLINK-4086,1 52833U 22062D   22279.58334491  .00102579  00000-0  63827-2 0  9994,2 52833  53.2167 246.0586 0001505  57.9880 104.9812 15.08770528  1308,6918.093000000003,95.442,540.999,538.9169999999998,0.0
